{
  "links" : {
    "next" : "https://api.nasa.gov/neo/rest/v1/neo/browse?page=11&size=20&api_key=jqAGvNAwUIBu4fl9FSOjdm3V4F7hIglRzI6pdX9d",
    "prev" : "https://api.nasa.gov/neo/rest/v1/neo/browse?page=9&size=20&api_key=jqAGvNAwUIBu4fl9FSOjdm3V4F7hIglRzI6pdX9d",
    "self" : "https://api.nasa.gov/neo/rest/v1/neo/browse?page=10&size=20&api_key=jqAGvNAwUIBu4fl9FSOjdm3V4F7hIglRzI6pdX9d"
  },
  "page" : {
    "size" : 20,
    "total_elements" : 20750,
    "total_pages" : 1038,
    "number" : 10
  },
  "near_earth_objects" : [ {
    "links" : {
      "self" : "https://api.nasa.gov/neo/rest/v1/neo/3829480?api_key=jqAGvNAwUIBu4fl9FSOjdm3V4F7hIglRzI6pdX9d"
    },
    "neo_reference_id" : "3829480",
    "name" : "(2018 RS7)",
    "designation" : "2018 RS7",
    "nasa_jpl_url" : "http://ssd.jpl.nasa.gov/sbdb.cgi?sstr=3829480",
    "absolute_magnitude_h" : 25.5,
    "estimated_diameter" : {
      "kilometers" : {
        "estimated_diameter_min" : 0.0211132445,
        "estimated_diameter_max" : 0.0472106499
      },
      "meters" : {
        "estimated_diameter_min" : 21.113244479,
        "estimated_diameter_max" : 47.2106498806
      },
      "miles" : {
        "estimated_diameter_min" : 0.0131191578,
        "estimated_diameter_max" : 0.0293353287
      },
      "feet" : {
        "estimated_diameter_min" : 69.2691770164,
        "estimated_diameter_max" : 154.8905885541
      }
    },
    "is_potentially_hazardous_asteroid" : false,
    "close_approach_data" : [ {
      "close_approach_date" : "2018-09-21",
      "epoch_date_close_approach" : 1537513200000,
      "relative_velocity" : {
        "kilometers_per_second" : "4.898008011",
        "kilometers_per_hour" : "17632.8288394497",
        "miles_per_hour" : "10956.3541197125"
      },
      "miss_distance" : {
        "astronomical" : "0.1587585258",
        "lunar" : "61.7570648193",
        "kilometers" : "23749936",
        "miles" : "14757527"
      },
      "orbiting_body" : "Earth"
    } ],
    "orbital_data" : {
      "orbit_id" : "3",
      "orbit_determination_date" : "2018-10-07 06:47:21",
      "first_observation_date" : "2018-09-13",
      "last_observation_date" : "2018-10-05",
      "data_arc_in_days" : 22,
      "observations_used" : 22,
      "orbit_uncertainty" : "8",
      "minimum_orbit_intersection" : ".158113",
      "jupiter_tisserand_invariant" : "3.386",
      "epoch_osculation" : "2458395.5",
      "eccentricity" : ".5026401695539627",
      "semi_major_axis" : "2.33073773761752",
      "inclination" : "4.42393990725592",
      "ascending_node_longitude" : "342.251706253551",
      "orbital_period" : "1299.686293471064",
      "perihelion_distance" : "1.15921532599563",
      "perihelion_argument" : "20.48717231957268",
      "aphelion_distance" : "3.502260149239409",
      "perihelion_time" : "2458386.707615882311",
      "mean_anomaly" : "2.435401756769016",
      "mean_motion" : ".2769899181121241",
      "equinox" : "J2000",
      "orbit_class" : {
        "orbit_class_type" : "AMO",
        "orbit_class_range" : "1.017 AU < q (perihelion) < 1.3 AU",
        "orbit_class_description" : "Near-Earth asteroid orbits similar to that of 1221 Amor"
      }
    },
    "is_sentry_object" : false
  }, {
    "links" : {
      "self" : "https://api.nasa.gov/neo/rest/v1/neo/3836856?api_key=jqAGvNAwUIBu4fl9FSOjdm3V4F7hIglRzI6pdX9d"
    },
    "neo_reference_id" : "3836856",
    "name" : "(2018 XS2)",
    "designation" : "2018 XS2",
    "nasa_jpl_url" : "http://ssd.jpl.nasa.gov/sbdb.cgi?sstr=3836856",
    "absolute_magnitude_h" : 26.1,
    "estimated_diameter" : {
      "kilometers" : {
        "estimated_diameter_min" : 0.0160160338,
        "estimated_diameter_max" : 0.0358129403
      },
      "meters" : {
        "estimated_diameter_min" : 16.0160337979,
        "estimated_diameter_max" : 35.8129403019
      },
      "miles" : {
        "estimated_diameter_min" : 0.0099518989,
        "estimated_diameter_max" : 0.0222531225
      },
      "feet" : {
        "estimated_diameter_min" : 52.5460443254,
        "estimated_diameter_max" : 117.4965270602
      }
    },
    "is_potentially_hazardous_asteroid" : false,
    "close_approach_data" : [ {
      "close_approach_date" : "2018-12-02",
      "epoch_date_close_approach" : 1543737600000,
      "relative_velocity" : {
        "kilometers_per_second" : "6.500871042",
        "kilometers_per_hour" : "23403.1357511781",
        "miles_per_hour" : "14541.7984338362"
      },
      "miss_distance" : {
        "astronomical" : "0.039132475",
        "lunar" : "15.222533226",
        "kilometers" : "5854135",
        "miles" : "3637591"
      },
      "orbiting_body" : "Earth"
    } ],
    "orbital_data" : {
      "orbit_id" : "1",
      "orbit_determination_date" : "2018-12-12 08:42:08",
      "first_observation_date" : "2018-12-10",
      "last_observation_date" : "2018-12-12",
      "data_arc_in_days" : 2,
      "observations_used" : 26,
      "orbit_uncertainty" : "8",
      "minimum_orbit_intersection" : ".0388265",
      "jupiter_tisserand_invariant" : "4.553",
      "epoch_osculation" : "2458463.5",
      "eccentricity" : ".3117074635773172",
      "semi_major_axis" : "1.463040193820831",
      "inclination" : "8.504517237907089",
      "ascending_node_longitude" : "76.80897797248245",
      "orbital_period" : "646.3724139607639",
      "perihelion_distance" : "1.006999645893273",
      "perihelion_argument" : "333.8331481495615",
      "aphelion_distance" : "1.919080741748388",
      "perihelion_time" : "2458437.799679535215",
      "mean_anomaly" : "14.31390815494212",
      "mean_motion" : ".5569544618930051",
      "equinox" : "J2000",
      "orbit_class" : {
        "orbit_class_type" : "APO",
        "orbit_class_range" : "a (semi-major axis) > 1.0 AU; q (perihelion) < 1.017 AU",
        "orbit_class_description" : "Near-Earth asteroid orbits which cross the Earth’s orbit similar to that of 1862 Apollo"
      }
    },
    "is_sentry_object" : false
  }, {
    "links" : {
      "self" : "https://api.nasa.gov/neo/rest/v1/neo/3837558?api_key=jqAGvNAwUIBu4fl9FSOjdm3V4F7hIglRzI6pdX9d"
    },
    "neo_reference_id" : "3837558",
    "name" : "(2019 AT)",
    "designation" : "2019 AT",
    "nasa_jpl_url" : "http://ssd.jpl.nasa.gov/sbdb.cgi?sstr=3837558",
    "absolute_magnitude_h" : 25.1,
    "estimated_diameter" : {
      "kilometers" : {
        "estimated_diameter_min" : 0.0253837029,
        "estimated_diameter_max" : 0.0567596853
      },
      "meters" : {
        "estimated_diameter_min" : 25.3837029364,
        "estimated_diameter_max" : 56.7596852866
      },
      "miles" : {
        "estimated_diameter_min" : 0.0157726969,
        "estimated_diameter_max" : 0.0352688224
      },
      "feet" : {
        "estimated_diameter_min" : 83.279867942,
        "estimated_diameter_max" : 186.2194458756
      }
    },
    "is_potentially_hazardous_asteroid" : false,
    "close_approach_data" : [ {
      "close_approach_date" : "2018-12-22",
      "epoch_date_close_approach" : 1545465600000,
      "relative_velocity" : {
        "kilometers_per_second" : "7.5860829477",
        "kilometers_per_hour" : "27309.8986117158",
        "miles_per_hour" : "16969.3089457075"
      },
      "miss_distance" : {
        "astronomical" : "0.0196200914",
        "lunar" : "7.6322154999",
        "kilometers" : "2935123.75",
        "miles" : "1823801.375"
      },
      "orbiting_body" : "Earth"
    } ],
    "orbital_data" : {
      "orbit_id" : "3",
      "orbit_determination_date" : "2019-01-13 07:50:44",
      "first_observation_date" : "2018-12-31",
      "last_observation_date" : "2019-01-12",
      "data_arc_in_days" : 12,
      "observations_used" : 17,
      "orbit_uncertainty" : "8",
      "minimum_orbit_intersection" : ".0195375",
      "jupiter_tisserand_invariant" : "3.189",
      "epoch_osculation" : "2458488.5",
      "eccentricity" : ".6015063932117181",
      "semi_major_axis" : "2.498371866991107",
      "inclination" : "1.371803022177498",
      "ascending_node_longitude" : "232.2123895292762",
      "orbital_period" : "1442.394468292931",
      "perihelion_distance" : ".9955852163756602",
      "perihelion_argument" : "222.616015316218",
      "aphelion_distance" : "4.001158517606554",
      "perihelion_time" : "2458478.467699830445",
      "mean_anomaly" : "2.503911475280511",
      "mean_motion" : ".2495849837985436",
      "equinox" : "J2000",
      "orbit_class" : {
        "orbit_class_type" : "APO",
        "orbit_class_range" : "a (semi-major axis) > 1.0 AU; q (perihelion) < 1.017 AU",
        "orbit_class_description" : "Near-Earth asteroid orbits which cross the Earth’s orbit similar to that of 1862 Apollo"
      }
    },
    "is_sentry_object" : false
  } ]
}